TIANMU-1 07             
1 57399U 23101A   26065.57454230  .00008352  00000+0  29795-3 0  9991
2 57399  97.2728 118.5929 0004609 142.4105 217.7458 15.29118809145964
STARLINK-32891          
1 62927U 25027W   26068.52048685  .00031825  00000+0  11617-2 0  9998
2 62927  42.9981 130.0619 0001362 286.2406  73.8296 15.27561238 61632
